{
  "type": "FeatureCollection",
  "features": [
    {
      "type": "Feature",
      "properties": {
        "norad_id": 43208,
        "name": "BEIDOU-3 M3 (C21)",
        "group": "beidou",
        "lat": 26.410478632404,
        "lon": 88.65772734426952,
        "alt_km": 21520.223035938347,
        "timestamp": "2025-12-08T03:50:07.262543+00:00",
        "meta_object_name": "BEIDOU-3 M3 (C21)",
        "meta_object_id": "2018-018B",
        "meta_epoch": "2025-12-03T06:41:57.693408",
        "meta_mean_motion": 1.86230862,
        "meta_eccentricity": 0.0006282,
        "meta_inclination": 56.4772,
        "meta_ra_of_asc_node": 69.6218,
        "meta_arg_of_pericenter": 317.5873,
        "meta_mean_anomaly": 42.3668,
        "meta_ephemeris_type": 0,
        "meta_classification_type": "U",
        "meta_norad_cat_id": 43208,
        "meta_element_set_no": 999,
        "meta_rev_at_epoch": 5309,
        "meta_bstar": 0,
        "meta_mean_motion_dot": -4.9e-07,
        "meta_mean_motion_ddot": 0,
        "tle_line1": "1 43208U 18018B   25337.27913997 -.00000049  00000+0  00000+0 0  9994",
        "tle_line2": "2 43208  56.4772  69.6218 0006282 317.5873  42.3668  1.86230862 53096"
      },
      "geometry": {
        "type": "Point",
        "coordinates": [
          88.65772734426952,
          26.410478632404
        ]
      }
    },
    {
      "type": "Feature",
      "properties": {
        "norad_id": 43245,
        "name": "BEIDOU-3 M9 (C29)",
        "group": "beidou",
        "lat": -48.58818045939189,
        "lon": -179.04759761760073,
        "alt_km": 21529.819925711814,
        "timestamp": "2025-12-08T03:50:07.262554+00:00",
        "meta_object_name": "BEIDOU-3 M9 (C29)",
        "meta_object_id": "2018-029A",
        "meta_epoch": "2025-12-07T06:05:41.929728",
        "meta_mean_motion": 1.8622789,
        "meta_eccentricity": 0.00016353,
        "meta_inclination": 54.3707,
        "meta_ra_of_asc_node": 306.6587,
        "meta_arg_of_pericenter": 276.8895,
        "meta_mean_anomaly": 83.077,
        "meta_ephemeris_type": 0,
        "meta_classification_type": "U",
        "meta_norad_cat_id": 43245,
        "meta_element_set_no": 999,
        "meta_rev_at_epoch": 5232,
        "meta_bstar": 0,
        "meta_mean_motion_dot": -7e-07,
        "meta_mean_motion_ddot": 0,
        "tle_line1": "1 43245U 18029A   25341.25395752 -.00000070  00000+0  00000+0 0  9997",
        "tle_line2": "2 43245  54.3707 306.6587 0001635 276.8895  83.0770  1.86227890 52321"
      },
      "geometry": {
        "type": "Point",
        "coordinates": [
          -179.04759761760073,
          -48.58818045939189
        ]
      }
    },
    {
      "type": "Feature",
      "properties": {
        "norad_id": 43246,
        "name": "BEIDOU-3 M10 (C30)",
        "group": "beidou",
        "lat": -49.4999503154125,
        "lon": -110.42011947426145,
        "alt_km": 21529.815840158168,
        "timestamp": "2025-12-08T03:50:07.262565+00:00",
        "meta_object_name": "BEIDOU-3 M10 (C30)",
        "meta_object_id": "2018-029B",
        "meta_epoch": "2025-12-06T15:39:16.557408",
        "meta_mean_motion": 1.86228888,
        "meta_eccentricity": 0.00040513,
        "meta_inclination": 54.3688,
        "meta_ra_of_asc_node": 306.7073,
        "meta_arg_of_pericenter": 0.3852,
        "meta_mean_anomaly": 359.5988,
        "meta_ephemeris_type": 0,
        "meta_classification_type": "U",
        "meta_norad_cat_id": 43246,
        "meta_element_set_no": 999,
        "meta_rev_at_epoch": 5229,
        "meta_bstar": 0,
        "meta_mean_motion_dot": -6.9e-07,
        "meta_mean_motion_ddot": 0,
        "tle_line1": "1 43246U 18029B   25340.65227497 -.00000069  00000+0  00000+0 0  9999",
        "tle_line2": "2 43246  54.3688 306.7073 0004051   0.3852 359.5988  1.86228888 52295"
      },
      "geometry": {
        "type": "Point",
        "coordinates": [
          -110.42011947426145,
          -49.4999503154125
        ]
      }
    },
    {
      "type": "Feature",
      "properties": {
        "norad_id": 43539,
        "name": "BEIDOU-2 IGSO-7 (C16)",
        "group": "beidou",
        "lat": 54.05167607080666,
        "lon": -121.2583052930169,
        "alt_km": 36135.8386461809,
        "timestamp": "2025-12-08T03:50:07.262576+00:00",
        "meta_object_name": "BEIDOU-2 IGSO-7 (C16)",
        "meta_object_id": "2018-057A",
        "meta_epoch": "2025-12-06T22:34:51.744288",
        "meta_mean_motion": 1.00258613,
        "meta_eccentricity": 0.00924955,
        "meta_inclination": 55.1738,
        "meta_ra_of_asc_node": 164.7221,
        "meta_arg_of_pericenter": 235.206,
        "meta_mean_anomaly": 125.9942,
        "meta_ephemeris_type": 0,
        "meta_classification_type": "U",
        "meta_norad_cat_id": 43539,
        "meta_element_set_no": 999,
        "meta_rev_at_epoch": 2720,
        "meta_bstar": 0,
        "meta_mean_motion_dot": -6.3e-07,
        "meta_mean_motion_ddot": 0,
        "tle_line1": "1 43539U 18057A   25340.94087667 -.00000063  00000+0  00000+0 0  9994",
        "tle_line2": "2 43539  55.1738 164.7221 0092495 235.2060 125.9942  1.00258613 27204"
      },
      "geometry": {
        "type": "Point",
        "coordinates": [
          -121.2583052930169,
          54.05167607080666
        ]
      }
    },
    {
      "type": "Feature",
      "properties": {
        "norad_id": 43581,
        "name": "BEIDOU-3 M5 (C23)",
        "group": "beidou",
        "lat": 31.282924499536083,
        "lon": -17.324233875291267,
        "alt_km": 21529.38292199119,
        "timestamp": "2025-12-08T03:50:07.262588+00:00",
        "meta_object_name": "BEIDOU-3 M5 (C23)",
        "meta_object_id": "2018-062A",
        "meta_epoch": "2025-12-06T21:02:53.653632",
        "meta_mean_motion": 1.86228635,
        "meta_eccentricity": 0.00021198,
        "meta_inclination": 54.0891,
        "meta_ra_of_asc_node": 188.8428,
        "meta_arg_of_pericenter": 353.2853,
        "meta_mean_anomaly": 6.7866,
        "meta_ephemeris_type": 0,
        "meta_classification_type": "U",
        "meta_norad_cat_id": 43581,
        "meta_element_set_no": 999,
        "meta_rev_at_epoch": 5005,
        "meta_bstar": 0,
        "meta_mean_motion_dot": 6.6e-07,
        "meta_mean_motion_ddot": 0,
        "tle_line1": "1 43581U 18062A   25340.87700988  .00000066  00000+0  00000+0 0  9999",
        "tle_line2": "2 43581  54.0891 188.8428 0002119 353.2853   6.7866  1.86228635 50055"
      },
      "geometry": {
        "type": "Point",
        "coordinates": [
          -17.324233875291267,
          31.282924499536083
        ]
      }
    },
    {
      "type": "Feature",
      "properties": {
        "norad_id": 43582,
        "name": "BEIDOU-3 M6 (C24)",
        "group": "beidou",
        "lat": -39.6034229622754,
        "lon": 45.64679752907339,
        "alt_km": 21554.451464779922,
        "timestamp": "2025-12-08T03:50:07.262599+00:00",
        "meta_object_name": "BEIDOU-3 M6 (C24)",
        "meta_object_id": "2018-062B",
        "meta_epoch": "2025-12-06T17:45:46.056960",
        "meta_mean_motion": 1.86229666,
        "meta_eccentricity": 0.00077578,
        "meta_inclination": 54.0886,
        "meta_ra_of_asc_node": 188.8365,
        "meta_arg_of_pericenter": 46.2295,
        "meta_mean_anomaly": 313.9106,
        "meta_ephemeris_type": 0,
        "meta_classification_type": "U",
        "meta_norad_cat_id": 43582,
        "meta_element_set_no": 999,
        "meta_rev_at_epoch": 5005,
        "meta_bstar": 0,
        "meta_mean_motion_dot": 6.8e-07,
        "meta_mean_motion_ddot": 0,
        "tle_line1": "1 43582U 18062B   25340.74011640  .00000068  00000+0  00000+0 0  9998",
        "tle_line2": "2 43582  54.0886 188.8365 0007757  46.2295 313.9106  1.86229666 50057"
      },
      "geometry": {
        "type": "Point",
        "coordinates": [
          45.64679752907339,
          -39.6034229622754
        ]
      }
    },
    {
      "type": "Feature",
      "properties": {
        "norad_id": 43602,
        "name": "BEIDOU-3 M12 (C26)",
        "group": "beidou",
        "lat": -54.00323928187785,
        "lon": 103.59963021528878,
        "alt_km": 21549.604946226464,
        "timestamp": "2025-12-08T03:50:07.262610+00:00",
        "meta_object_name": "BEIDOU-3 M12 (C26)",
        "meta_object_id": "2018-067A",
        "meta_epoch": "2025-12-05T01:36:30.437280",
        "meta_mean_motion": 1.86227634,
        "meta_eccentricity": 0.0009145,
        "meta_inclination": 54.1831,
        "meta_ra_of_asc_node": 187.6237,
        "meta_arg_of_pericenter": 40.6372,
        "meta_mean_anomaly": 319.5174,
        "meta_ephemeris_type": 0,
        "meta_classification_type": "U",
        "meta_norad_cat_id": 43602,
        "meta_element_set_no": 999,
        "meta_rev_at_epoch": 4950,
        "meta_bstar": 0,
        "meta_mean_motion_dot": 9.5e-07,
        "meta_mean_motion_ddot": 0,
        "tle_line1": "1 43602U 18067A   25339.06701895  .00000095  00000+0  00000+0 0  9997",
        "tle_line2": "2 43602  54.1831 187.6237 0009145  40.6372 319.5174  1.86227634 49501"
      },
      "geometry": {
        "type": "Point",
        "coordinates": [
          103.59963021528878,
          -54.00323928187785
        ]
      }
    }
  ]
}